{"type": "FeatureCollection", "features": [ {"type": "Feature", "properties": {"norad_id": 34375, "name": "IRIDIUM 33 DEB", "group": "iridium-33-debris", "lat": 32.90415255735216, "lon": 3.7235615964574853, "alt_km": 756.7029855515639, "timestamp": "2025-12-04T10:51:50.490452+00:00", "meta": {"OBJECT_NAME": "IRIDIUM 33 DEB", "OBJECT_ID": "1997-051FT", "EPOCH": "2025-12-04T02:19:13.604736", "MEAN_MOTION": 14.17969108, "ECCENTRICITY": 0.0102564, "INCLINATION": 86.4331, "RA_OF_ASC_NODE": 186.18, "ARG_OF_PERICENTER": 153.93, "MEAN_ANOMALY": 337.07, "EPHEMERIS_TYPE": 0, "CLASSIFICATION_TYPE": "U", "NORAD_CAT_ID": 34375, "ELEMENT_SET_NO": 999, "REV_AT_EPOCH": 86589, "BSTAR": 0.00070165, "MEAN_MOTION_DOT": 1.531e-05, "MEAN_MOTION_DDOT": 0}, "tle": {"line1": "1 34375U 97051FT  25338.09668524  .00001531  00000+0  70165-3 0  9996", "line2": "2 34375  86.4331 186.1800 0102564 153.9300 337.0700 14.17969108865894"}}, "geometry": {"type": "Point", "coordinates": [3.7235615964574853, 32.90415255735216]}}, {"type": "Feature", "properties": {"norad_id": 34376, "name": "IRIDIUM 33 DEB", "group": "iridium-33-debris", "lat": -84.44829821508958, "lon": -31.484650856015303, "alt_km": 689.4394578320789, "timestamp": "2025-12-04T10:51:50.490462+00:00", "meta": {"OBJECT_NAME": "IRIDIUM 33 DEB", "OBJECT_ID": "1997-051FU", "EPOCH": "2025-12-03T20:28:37.375104", "MEAN_MOTION": 14.62362508, "ECCENTRICITY": 0.0026132, "INCLINATION": 86.2992, "RA_OF_ASC_NODE": 10.5349, "ARG_OF_PERICENTER": 197.0147, "MEAN_ANOMALY": 163.0191, "EPHEMERIS_TYPE": 0, "CLASSIFICATION_TYPE": "U", "NORAD_CAT_ID": 34376, "ELEMENT_SET_NO": 999, "REV_AT_EPOCH": 87877, "BSTAR": 0.0029365, "MEAN_MOTION_DOT": 0.00014948, "MEAN_MOTION_DDOT": 0}, "tle": {"line1": "1 34376U 97051FU  25337.85321036  .00014948  00000+0  29365-2 0  9995", "line2": "2 34376  86.2992  10.5349 0026132 197.0147 163.0191 14.62362508878771"}}, "geometry": {"type": "Point", "coordinates": [-31.484650856015303, -84.44829821508958]}}, {"type": "Feature", "properties": {"norad_id": 34486, "name": "IRIDIUM 33 DEB", "group": "iridium-33-debris", "lat": -46.54840109117828, "lon": -160.33450856423147, "alt_km": 588.0881192023999, "timestamp": "2025-12-04T10:51:50.490473+00:00", "meta": {"OBJECT_NAME": "IRIDIUM 33 DEB", "OBJECT_ID": "1997-051GB", "EPOCH": "2025-12-04T03:41:51.118368", "MEAN_MOTION": 14.951815, "ECCENTRICITY": 0.0013023, "INCLINATION": 86.394, "RA_OF_ASC_NODE": 15.9863, "ARG_OF_PERICENTER": 140.9136, "MEAN_ANOMALY": 279.2911, "EPHEMERIS_TYPE": 0, "CLASSIFICATION_TYPE": "U", "NORAD_CAT_ID": 34486, "ELEMENT_SET_NO": 999, "REV_AT_EPOCH": 88858, "BSTAR": 0.0048037, "MEAN_MOTION_DOT": 0.00053192, "MEAN_MOTION_DDOT": 0}, "tle": {"line1": "1 34486U 97051GB  25338.15406387  .00053192  00000+0  48037-2 0  9995", "line2": "2 34486  86.3940  15.9863 0013023 140.9136 279.2911 14.95181500888584"}}, "geometry": {"type": "Point", "coordinates": [-160.33450856423147, -46.54840109117828]}}, {"type": "Feature", "properties": {"norad_id": 34487, "name": "IRIDIUM 33 DEB", "group": "iridium-33-debris", "lat": -0.4727825483933099, "lon": 15.914909785962113, "alt_km": 771.6550620373064, "timestamp": "2025-12-04T10:51:50.490484+00:00", "meta": {"OBJECT_NAME": "IRIDIUM 33 DEB", "OBJECT_ID": "1997-051GC", "EPOCH": "2025-12-03T10:12:00.081216", "MEAN_MOTION": 14.43196495, "ECCENTRICITY": 0.00319082, "INCLINATION": 86.3443, "RA_OF_ASC_NODE": 16.3873, "ARG_OF_PERICENTER": 157.9365, "MEAN_ANOMALY": 266.0119, "EPHEMERIS_TYPE": 0, "CLASSIFICATION_TYPE": "U", "NORAD_CAT_ID": 34487, "ELEMENT_SET_NO": 999, "REV_AT_EPOCH": 88114, "BSTAR": 0.00029137047, "MEAN_MOTION_DOT": 1.005e-05, "MEAN_MOTION_DDOT": 0}, "tle": {"line1": "1 34487U 97051GC  25337.42500094  .00001005  00000+0  29137-3 0  9992", "line2": "2 34487  86.3443  16.3873 0031908 157.9365 266.0119 14.43196495881144"}}, "geometry": {"type": "Point", "coordinates": [15.914909785962113, -0.4727825483933099]}}, {"type": "Feature", "properties": {"norad_id": 34488, "name": "IRIDIUM 33 DEB", "group": "iridium-33-debris", "lat": -36.293998529231395, "lon": -52.79589916788872, "alt_km": 494.56132048036216, "timestamp": "2025-12-04T10:51:50.490496+00:00", "meta": {"OBJECT_NAME": "IRIDIUM 33 DEB", "OBJECT_ID": "1997-051GD", "EPOCH": "2025-12-04T04:43:46.394400", "MEAN_MOTION": 15.26377687, "ECCENTRICITY": 0.0015526, "INCLINATION": 86.3256, "RA_OF_ASC_NODE": 310.0352, "ARG_OF_PERICENTER": 64.3641, "MEAN_ANOMALY": 295.9208, "EPHEMERIS_TYPE": 0, "CLASSIFICATION_TYPE": "U", "NORAD_CAT_ID": 34488, "ELEMENT_SET_NO": 999, "REV_AT_EPOCH": 89109, "BSTAR": 0.0085127, "MEAN_MOTION_DOT": 0.00228455, "MEAN_MOTION_DDOT": 0}, "tle": {"line1": "1 34488U 97051GD  25338.19706475  .00228455  00000+0  85127-2 0  9999", "line2": "2 34488  86.3256 310.0352 0015526  64.3641 295.9208 15.26377687891090"}}, "geometry": {"type": "Point", "coordinates": [-52.79589916788872, -36.293998529231395]}}, {"type": "Feature", "properties": {"norad_id": 34492, "name": "IRIDIUM 33 DEB", "group": "iridium-33-debris", "lat": -74.72744309760573, "lon": 171.04123472598317, "alt_km": 680.1092189594192, "timestamp": "2025-12-04T10:51:50.490507+00:00", "meta": {"OBJECT_NAME": "IRIDIUM 33 DEB", "OBJECT_ID": "1997-051GH", "EPOCH": "2025-12-03T10:48:32.344704", "MEAN_MOTION": 14.25280236, "ECCENTRICITY": 0.0190283, "INCLINATION": 86.4711, "RA_OF_ASC_NODE": 338.3846, "ARG_OF_PERICENTER": 268.3385, "MEAN_ANOMALY": 247.4972, "EPHEMERIS_TYPE": 0, "CLASSIFICATION_TYPE": "U", "NORAD_CAT_ID": 34492, "ELEMENT_SET_NO": 999, "REV_AT_EPOCH": 84926, "BSTAR": 0.008581153, "MEAN_MOTION_DOT": 0.00024475, "MEAN_MOTION_DDOT": 0}, "tle": {"line1": "1 34492U 97051GH  25337.45037436  .00024475  00000+0  85812-2 0  9993", "line2": "2 34492  86.4711 338.3846 0190283 268.3385 247.4972 14.25280236849261"}}, "geometry": {"type": "Point", "coordinates": [171.04123472598317, -74.72744309760573]}}, {"type": "Feature", "properties": {"norad_id": 34497, "name": "IRIDIUM 33 DEB", "group": "iridium-33-debris", "lat": 78.053995123617, "lon": 73.8582345259331, "alt_km": 775.1768088095378, "timestamp": "2025-12-04T10:51:50.490517+00:00", "meta": {"OBJECT_NAME": "IRIDIUM 33 DEB", "OBJECT_ID": "1997-051GN", "EPOCH": "2025-12-03T06:10:51.201984", "MEAN_MOTION": 14.27408211, "ECCENTRICITY": 0.0079856, "INCLINATION": 86.2784, "RA_OF_ASC_NODE": 56.4516, "ARG_OF_PERICENTER": 10.3771, "MEAN_ANOMALY": 49.8757, "EPHEMERIS_TYPE": 0, "CLASSIFICATION_TYPE": "U", "NORAD_CAT_ID": 34497, "ELEMENT_SET_NO": 999, "REV_AT_EPOCH": 86748, "BSTAR": 0.00083815, "MEAN_MOTION_DOT": 2.144e-05, "MEAN_MOTION_DDOT": 0}, "tle": {"line1": "1 34497U 97051GN  25337.25753706  .00002144  00000+0  83815-3 0  9992", "line2": "2 34497  86.2784  56.4516 0079856  10.3771  49.8757 14.27408211867488"}}, "geometry": {"type": "Point", "coordinates": [73.8582345259331, 78.053995123617]}}, {"type": "Feature", "properties": {"norad_id": 34508, "name": "IRIDIUM 33 DEB", "group": "iridium-33-debris", "lat": -86.27027468428102, "lon": 29.287901049565917, "alt_km": 756.0994458865416, "timestamp": "2025-12-04T10:51:50.490527+00:00", "meta": {"OBJECT_NAME": "IRIDIUM 33 DEB", "OBJECT_ID": "1997-051GZ", "EPOCH": "2025-12-03T18:34:58.618848", "MEAN_MOTION": 14.38282153, "ECCENTRICITY": 0.0065497, "INCLINATION": 86.3699, "RA_OF_ASC_NODE": 106.4429, "ARG_OF_PERICENTER": 202.0722, "MEAN_ANOMALY": 157.7654, "EPHEMERIS_TYPE": 0, "CLASSIFICATION_TYPE": "U", "NORAD_CAT_ID": 34508, "ELEMENT_SET_NO": 999, "REV_AT_EPOCH": 87180, "BSTAR": 0.002633055, "MEAN_MOTION_DOT": 8.231e-05, "MEAN_MOTION_DDOT": 0}, "tle": {"line1": "1 34508U 97051GZ  25337.77428957  .00008231  00000+0  26331-2 0  9991", "line2": "2 34508  86.3699 106.4429 0065497 202.0722 157.7654 14.38282153871801"}}, "geometry": {"type": "Point", "coordinates": [29.287901049565917, -86.27027468428102]}}, {"type": "Feature", "properties": {"norad_id": 34521, "name": "IRIDIUM 33 DEB", "group": "iridium-33-debris", "lat": 64.64947473210592, "lon": 41.87297096454538, "alt_km": 677.0784926161541, "timestamp": "2025-12-04T10:51:50.490537+00:00", "meta": {"OBJECT_NAME": "IRIDIUM 33 DEB", "OBJECT_ID": "1997-051HN", "EPOCH": "2025-12-04T04:00:12.561984", "MEAN_MOTION": 14.63244137, "ECCENTRICITY": 0.000111, "INCLINATION": 86.381, "RA_OF_ASC_NODE": 34.3219, "ARG_OF_PERICENTER": 286.9705, "MEAN_ANOMALY": 73.1385, "EPHEMERIS_TYPE": 0, "CLASSIFICATION_TYPE": "U", "NORAD_CAT_ID": 34521, "ELEMENT_SET_NO": 999, "REV_AT_EPOCH": 88347, "BSTAR": 0.002099, "MEAN_MOTION_DOT": 0.00010842, "MEAN_MOTION_DDOT": 0}, "tle": {"line1": "1 34521U 97051HN  25338.16681206  .00010842  00000+0  20990-2 0  9994", "line2": "2 34521  86.3810  34.3219 0001110 286.9705  73.1385 14.63244137883477"}}, "geometry": {"type": "Point", "coordinates": [41.87297096454538, 64.64947473210592]}}, {"type": "Feature", "properties": {"norad_id": 34525, "name": "IRIDIUM 33 DEB", "group": "iridium-33-debris", "lat": 47.52787681058539, "lon": -133.59176125390957, "alt_km": 740.5567281733966, "timestamp": "2025-12-04T10:51:50.490548+00:00", "meta": {"OBJECT_NAME": "IRIDIUM 33 DEB", "OBJECT_ID": "1997-051HS", "EPOCH": "2025-12-03T12:55:13.156608", "MEAN_MOTION": 14.42867525, "ECCENTRICITY": 0.00064393, "INCLINATION": 86.3737, "RA_OF_ASC_NODE": 50.7706, "ARG_OF_PERICENTER": 116.2069, "MEAN_ANOMALY": 309.7811, "EPHEMERIS_TYPE": 0, "CLASSIFICATION_TYPE": "U", "NORAD_CAT_ID": 34525, "ELEMENT_SET_NO": 999, "REV_AT_EPOCH": 87955, "BSTAR": 0.00057232393, "MEAN_MOTION_DOT": 1.93e-05, "MEAN_MOTION_DDOT": 0}, "tle": {"line1": "1 34525U 97051HS  25337.53834672  .00001930  00000+0  57232-3 0  9993", "line2": "2 34525  86.3737  50.7706 0006439 116.2069 309.7811 14.42867525879554"}}, "geometry": {"type": "Point", "coordinates": [-133.59176125390957, 47.52787681058539]}}]}